{
  "type": "FeatureCollection",
  "features": [
    {
      "type": "Feature",
      "properties": {
        "norad_id": 30749,
        "name": "FENGYUN 1C DEB",
        "group": "fengyun-1c-debris",
        "lat": -6.66889382769357,
        "lon": -170.93857663869363,
        "alt_km": 875.3335792852968,
        "timestamp": "2025-12-09T04:51:47.771701+00:00",
        "meta_object_name": "FENGYUN 1C DEB",
        "meta_object_id": "1999-025ATK",
        "meta_epoch": "2025-12-08T19:23:31.829856",
        "meta_mean_motion": 13.99835585,
        "meta_eccentricity": 0.005512,
        "meta_inclination": 98.8878,
        "meta_ra_of_asc_node": 9.7265,
        "meta_arg_of_pericenter": 243.4347,
        "meta_mean_anomaly": 116.1162,
        "meta_ephemeris_type": 0,
        "meta_classification_type": "U",
        "meta_norad_cat_id": 30749,
        "meta_element_set_no": 999,
        "meta_rev_at_epoch": 95911,
        "meta_bstar": 0.0002257,
        "meta_mean_motion_dot": 2.92e-06,
        "meta_mean_motion_ddot": 0,
        "tle_line1": "1 30749U 99025ATK 25342.80800729  .00000292  00000+0  22570-3 0  9999",
        "tle_line2": "2 30749  98.8878   9.7265 0055120 243.4347 116.1162 13.99835585959111"
      },
      "geometry": {
        "type": "Point",
        "coordinates": [
          -170.93857663869363,
          -6.66889382769357
        ]
      }
    },
    {
      "type": "Feature",
      "properties": {
        "norad_id": 30750,
        "name": "FENGYUN 1C DEB",
        "group": "fengyun-1c-debris",
        "lat": 81.04084191559511,
        "lon": -27.396413879668813,
        "alt_km": 761.6437247037857,
        "timestamp": "2025-12-09T04:51:47.771711+00:00",
        "meta_object_name": "FENGYUN 1C DEB",
        "meta_object_id": "1999-025ATL",
        "meta_epoch": "2025-12-08T03:22:00.046848",
        "meta_mean_motion": 14.2854195,
        "meta_eccentricity": 0.00409616,
        "meta_inclination": 98.9209,
        "meta_ra_of_asc_node": 56.5871,
        "meta_arg_of_pericenter": 113.2819,
        "meta_mean_anomaly": 275.7367,
        "meta_ephemeris_type": 0,
        "meta_classification_type": "U",
        "meta_norad_cat_id": 30750,
        "meta_element_set_no": 999,
        "meta_rev_at_epoch": 96716,
        "meta_bstar": 0.0024120987,
        "meta_mean_motion_dot": 6.061e-05,
        "meta_mean_motion_ddot": 0,
        "tle_line1": "1 30750U 99025ATL 25342.14027832  .00006061  00000+0  24121-2 0  9997",
        "tle_line2": "2 30750  98.9209  56.5871 0040961 113.2819 275.7367 14.28541950967166"
      },
      "geometry": {
        "type": "Point",
        "coordinates": [
          -27.396413879668813,
          81.04084191559511
        ]
      }
    },
    {
      "type": "Feature",
      "properties": {
        "norad_id": 30751,
        "name": "FENGYUN 1C DEB",
        "group": "fengyun-1c-debris",
        "lat": -8.1644509825855,
        "lon": 43.71294221437272,
        "alt_km": 861.3731045269124,
        "timestamp": "2025-12-09T04:51:47.771721+00:00",
        "meta_object_name": "FENGYUN 1C DEB",
        "meta_object_id": "1999-025ATM",
        "meta_epoch": "2025-12-08T17:36:16.884000",
        "meta_mean_motion": 14.15170119,
        "meta_eccentricity": 0.0052789,
        "meta_inclination": 98.8551,
        "meta_ra_of_asc_node": 41.9658,
        "meta_arg_of_pericenter": 107.8654,
        "meta_mean_anomaly": 15.9497,
        "meta_ephemeris_type": 0,
        "meta_classification_type": "U",
        "meta_norad_cat_id": 30751,
        "meta_element_set_no": 999,
        "meta_rev_at_epoch": 96219,
        "meta_bstar": 0.0021451,
        "meta_mean_motion_dot": 4.18e-05,
        "meta_mean_motion_ddot": 0,
        "tle_line1": "1 30751U 99025ATM 25342.73352875  .00004180  00000+0  21451-2 0  9994",
        "tle_line2": "2 30751  98.8551  41.9658 0052789 107.8654  15.9497 14.15170119962191"
      },
      "geometry": {
        "type": "Point",
        "coordinates": [
          43.71294221437272,
          -8.1644509825855
        ]
      }
    },
    {
      "type": "Feature",
      "properties": {
        "norad_id": 30753,
        "name": "FENGYUN 1C DEB",
        "group": "fengyun-1c-debris",
        "lat": -5.995758574689138,
        "lon": -159.07953623787216,
        "alt_km": 894.1639698805575,
        "timestamp": "2025-12-09T04:51:47.771754+00:00",
        "meta_object_name": "FENGYUN 1C DEB",
        "meta_object_id": "1999-025ATP",
        "meta_epoch": "2025-12-08T19:29:11.452704",
        "meta_mean_motion": 14.12624892,
        "meta_eccentricity": 0.0055493,
        "meta_inclination": 98.8072,
        "meta_ra_of_asc_node": 21.4694,
        "meta_arg_of_pericenter": 6.497,
        "meta_mean_anomaly": 353.6909,
        "meta_ephemeris_type": 0,
        "meta_classification_type": "U",
        "meta_norad_cat_id": 30753,
        "meta_element_set_no": 999,
        "meta_rev_at_epoch": 96296,
        "meta_bstar": 0.0015175,
        "meta_mean_motion_dot": 2.808e-05,
        "meta_mean_motion_ddot": 0,
        "tle_line1": "1 30753U 99025ATP 25342.81193811  .00002808  00000+0  15175-2 0  9999",
        "tle_line2": "2 30753  98.8072  21.4694 0055493   6.4970 353.6909 14.12624892962968"
      },
      "geometry": {
        "type": "Point",
        "coordinates": [
          -159.07953623787216,
          -5.995758574689138
        ]
      }
    },
    {
      "type": "Feature",
      "properties": {
        "norad_id": 30755,
        "name": "FENGYUN 1C DEB",
        "group": "fengyun-1c-debris",
        "lat": -73.77563335637177,
        "lon": 127.92272757478779,
        "alt_km": 651.1219421658152,
        "timestamp": "2025-12-09T04:51:47.771765+00:00",
        "meta_object_name": "FENGYUN 1C DEB",
        "meta_object_id": "1999-025ATR",
        "meta_epoch": "2025-12-08T18:31:56.485056",
        "meta_mean_motion": 14.44921679,
        "meta_eccentricity": 0.0150935,
        "meta_inclination": 98.2582,
        "meta_ra_of_asc_node": 337.445,
        "meta_arg_of_pericenter": 281.2769,
        "meta_mean_anomaly": 257.5779,
        "meta_ephemeris_type": 0,
        "meta_classification_type": "U",
        "meta_norad_cat_id": 30755,
        "meta_element_set_no": 999,
        "meta_rev_at_epoch": 98387,
        "meta_bstar": 0.0012122,
        "meta_mean_motion_dot": 4.809e-05,
        "meta_mean_motion_ddot": 0,
        "tle_line1": "1 30755U 99025ATR 25342.77218154  .00004809  00000+0  12122-2 0  9996",
        "tle_line2": "2 30755  98.2582 337.4450 0150935 281.2769 257.5779 14.44921679983874"
      },
      "geometry": {
        "type": "Point",
        "coordinates": [
          127.92272757478779,
          -73.77563335637177
        ]
      }
    },
    {
      "type": "Feature",
      "properties": {
        "norad_id": 30756,
        "name": "FENGYUN 1C DEB",
        "group": "fengyun-1c-debris",
        "lat": -26.88684322449637,
        "lon": -134.04187134757302,
        "alt_km": 861.8231669891447,
        "timestamp": "2025-12-09T04:51:47.771775+00:00",
        "meta_object_name": "FENGYUN 1C DEB",
        "meta_object_id": "1999-025ATS",
        "meta_epoch": "2025-12-07T02:55:05.602368",
        "meta_mean_motion": 14.18229314,
        "meta_eccentricity": 0.00709996,
        "meta_inclination": 98.9915,
        "meta_ra_of_asc_node": 48.4552,
        "meta_arg_of_pericenter": 332.4992,
        "meta_mean_anomaly": 56.1761,
        "meta_ephemeris_type": 0,
        "meta_classification_type": "U",
        "meta_norad_cat_id": 30756,
        "meta_element_set_no": 999,
        "meta_rev_at_epoch": 96325,
        "meta_bstar": 0.0022218419,
        "meta_mean_motion_dot": 4.641e-05,
        "meta_mean_motion_ddot": 0,
        "tle_line1": "1 30756U 99025ATS 25341.12159262  .00004641  00000+0  22218-2 0  9990",
        "tle_line2": "2 30756  98.9915  48.4552 0070999 332.4992  56.1761 14.18229314963254"
      },
      "geometry": {
        "type": "Point",
        "coordinates": [
          -134.04187134757302,
          -26.88684322449637
        ]
      }
    },
    {
      "type": "Feature",
      "properties": {
        "norad_id": 30758,
        "name": "FENGYUN 1C DEB",
        "group": "fengyun-1c-debris",
        "lat": -72.76573751204886,
        "lon": -108.94797213619431,
        "alt_km": 855.6622757407049,
        "timestamp": "2025-12-09T04:51:47.771785+00:00",
        "meta_object_name": "FENGYUN 1C DEB",
        "meta_object_id": "1999-025ATU",
        "meta_epoch": "2025-12-08T14:11:52.988064",
        "meta_mean_motion": 14.17084967,
        "meta_eccentricity": 0.0038521,
        "meta_inclination": 99.0184,
        "meta_ra_of_asc_node": 101.2272,
        "meta_arg_of_pericenter": 15.4637,
        "meta_mean_anomaly": 4.5995,
        "meta_ephemeris_type": 0,
        "meta_classification_type": "U",
        "meta_norad_cat_id": 30758,
        "meta_element_set_no": 999,
        "meta_rev_at_epoch": 96432,
        "meta_bstar": 0.0017559,
        "meta_mean_motion_dot": 3.515e-05,
        "meta_mean_motion_ddot": 0,
        "tle_line1": "1 30758U 99025ATU 25342.59158551  .00003515  00000+0  17559-2 0  9995",
        "tle_line2": "2 30758  99.0184 101.2272 0038521  15.4637   4.5995 14.17084967964329"
      },
      "geometry": {
        "type": "Point",
        "coordinates": [
          -108.94797213619431,
          -72.76573751204886
        ]
      }
    }
  ]
}